{"fetched_at":"2026-07-22T07:09:58.878Z","source":"https://celestrak.org/NORAD/elements/gp.php?NAME=PLEIADES&FORMAT=JSON","constellation":"pleiades-neo","records":[{"OBJECT_NAME":"PLEIADES NEO 3","OBJECT_ID":"2021-034A","EPOCH":"2026-07-21T15:03:09.508896","CLASSIFICATION_TYPE":"U","MEAN_MOTION":14.81664203,"ECCENTRICITY":0.00013744,"INCLINATION":97.8936,"RA_OF_ASC_NODE":276.8985,"ARG_OF_PERICENTER":99.9954,"MEAN_ANOMALY":260.1414,"EPHEMERIS_TYPE":0,"NORAD_CAT_ID":48268,"ELEMENT_SET_NO":999,"REV_AT_EPOCH":28275,"BSTAR":0.00013320668,"MEAN_MOTION_DOT":0.00000996,"MEAN_MOTION_DDOT":0},{"OBJECT_NAME":"PLEIADES NEO 4","OBJECT_ID":"2021-073E","EPOCH":"2026-07-21T20:43:28.666272","CLASSIFICATION_TYPE":"U","MEAN_MOTION":14.81673902,"ECCENTRICITY":0.0001353,"INCLINATION":97.8942,"RA_OF_ASC_NODE":277.1276,"ARG_OF_PERICENTER":99.6678,"MEAN_ANOMALY":260.4687,"EPHEMERIS_TYPE":0,"NORAD_CAT_ID":49070,"ELEMENT_SET_NO":999,"REV_AT_EPOCH":26650,"BSTAR":0.00014552,"MEAN_MOTION_DOT":0.00001093,"MEAN_MOTION_DDOT":0}]}
